NETSAT-4                
1 46504U 20068U   23117.39355907  .00008840  00000+0  59398-3 0  9996
2 46504  97.7583  62.7596 0011296 352.7734   7.3324 15.06972636141252
NETSAT-3                
1 46505U 20068V   23117.42160291  .00007860  00000+0  53062-3 0  9994
2 46505  97.7567  62.6356 0010729   3.2237 356.9052 15.06839062141261
NETSAT-1                
1 46506U 20068W   23117.38935482  .00007976  00000+0  54191-3 0  9994
2 46506  97.7562  62.4962 0009757  10.9391 349.2038 15.06605401141259
NETSAT-2                
1 46507U 20068X   23117.38917696  .00009400  00000+0  63279-3 0  9993
2 46507  97.7564  62.5125 0009056  17.1393 343.0139 15.06901212141205
SAI-1 NANOCONNECT-2     
1 47701U 21015C   23117.45910324  .00047998  00000+0  10544-2 0  9992
2 47701  97.3869 199.7939 0007554  64.1124 296.0902 15.43846865120314
WILDTRACKCUBE-SIMBA     
1 47941U 21022K   23118.28772714  .00010762  00000+0  63661-3 0  9995
2 47941  97.5022  16.2592 0019962 142.7518   5.5463 15.11458244115467
BEESAT-6                
1 47957U 21022AB  23116.96648663  .00016261  00000+0  81490-3 0  9990
2 47957  97.4993  16.2907 0018603 143.4230 216.8278 15.17285984115163
SMOG-1                  
1 47964U 21022AJ  23118.28191880  .00018829  00000+0  89713-3 0  9997
2 47964  97.5027  19.4564 0017405 126.6116 233.6722 15.19034342114497
BCCSAT-1                
1 48041U 21022AK  23117.52124665  .00016521  00000+0  83303-3 0  9993
2 48041  97.5031  17.7748 0014771 128.1724 232.0842 15.17124021114295
BEESAT-5                
1 48083U 21022AM  23118.23926651  .00018986  00000+0  91592-3 0  9999
2 48083  97.4924  17.6865 0018493 137.3646 222.9027 15.18583003114507
BEESAT-7                
1 48084U 21022AN  23117.18460859  .00017971  00000+0  88871-3 0  9995
2 48084  97.4985  16.5897 0018440 141.7115 218.5432 15.17733001113920
BEESAT-8                
1 48085U 21022AP  23118.20470371  .00011910  00000+0  63546-3 0  9999
2 48085  97.5029  17.2765 0019162 140.5011 219.7622 15.15141759114619
LEDSAT                  
1 49069U 21073D   23118.14591471  .00009140  00000+0  51384-3 0  9995
2 49069  97.4845 189.8940 0023042 294.0991  65.7830 15.13283244 93331
1998-067UL              
1 54534U 98067UL  23118.27634409  .00490342  10633-3  13265-2 0  9998
2 54534  51.6251 200.6626 0013255 340.8027  19.2479 15.93541055 23044
1998-067UN              
1 54536U 98067UN  23118.27129622  .00252141  00000+0  10945-2 0  9994
2 54536  51.6397 202.8774 0011252 330.6619  67.8441 15.83501105 22974
1998-067UP              
1 54537U 98067UP  23118.21365699  .00531551  12507-3  13796-2 0  9996
2 54537  51.6297 200.7964 0012564 341.6122 111.4726 15.94328646 23039
MARIO                   
1 55123U 98067UQ  23118.50514618  .01245843  90040-3  17456-2 0  9999
2 55123  51.6225 199.9368 0014560 343.6423  16.4117 16.05146157 18886
LORIS                   
1 55125U 98067US  23117.94955556  .00269538  00000+0  13091-2 0  9998
2 55125  51.6316 206.7942 0011580 333.9905  26.0513 15.81045219 18753
ORCASAT                 
1 55126U 98067UT  23118.50606267  .00129793  00000+0  92268-3 0  9996
2 55126  51.6352 206.0442 0009895 330.4019  29.6418 15.72904347 18812
TJREVERB                
1 55128U 98067UV  23117.49714731  .00232829  00000+0  12446-2 0  9995
2 55128  51.6297 209.7760 0012319 327.4941  32.5300 15.79034875 18663
SPORT                   
1 55129U 98067UW  23117.96560358  .00060587  00000+0  66272-3 0  9999
2 55129  51.6355 212.1922 0006187 311.0691  48.9768 15.62694543 18670
SS-1                    
1 55181U 98067UY  23118.41603141  .00673140  20213-3  16394-2 0  9992
2 55181  51.6261 202.3622 0013897 337.1336  22.9051 15.95468054 17558
HSKSAT                  
1 55182U 98067UZ  23118.41846282  .00124439  00000+0  90517-3 0  9998
2 55182  51.6328 206.9425 0008354 313.8008  46.2298 15.72402863 17501
OPTIMAL-1               
1 55183U 98067VA  23118.37529796  .00083316  00000+0  77956-3 0  9992
2 55183  51.6379 208.9376 0009481 322.3332  37.6999 15.66474333 17474
